[{"OBJECT_NAME":"STARLINK-35583","OBJECT_ID":"2025-270Z","EPOCH":"2026-03-09T00:20:17.852064","MEAN_MOTION":15.27592294,"ECCENTRICITY":0.00030319,"INCLINATION":43.004,"RA_OF_ASC_NODE":59.8937,"ARG_OF_PERICENTER":288.7918,"MEAN_ANOMALY":71.2605,"EPHEMERIS_TYPE":0,"CLASSIFICATION_TYPE":"U","NORAD_CAT_ID":66611,"ELEMENT_SET_NO":999,"REV_AT_EPOCH":1771,"BSTAR":0.0012682922,"MEAN_MOTION_DOT":0.00034819,"MEAN_MOTION_DDOT":0},{"OBJECT_NAME":"CP8 (IPEX)","OBJECT_ID":"2013-072K","EPOCH":"2026-03-09T13:09:38.394720","MEAN_MOTION":15.06461805,"ECCENTRICITY":0.0159394,"INCLINATION":120.4656,"RA_OF_ASC_NODE":280.3913,"ARG_OF_PERICENTER":252.2911,"MEAN_ANOMALY":106.0698,"EPHEMERIS_TYPE":0,"CLASSIFICATION_TYPE":"U","NORAD_CAT_ID":39471,"ELEMENT_SET_NO":999,"REV_AT_EPOCH":10021,"BSTAR":0.00057825,"MEAN_MOTION_DOT":0.0001114,"MEAN_MOTION_DDOT":0}]
